0 COSMOS 2251 DEB
1 37487U 93036BLQ 13283.39531061  .00002688  00000-0  10941-2 0  2360
2 37487 073.9472 177.6941 0059707 259.4618 099.9733 14.27017905172489
0 COSMOS 2251 DEB
1 37487U 93036BLQ 13287.04070047  .00002669  00000-0  10862-2 0  2370
2 37487 073.9468 171.0622 0059351 251.8696 107.6033 14.27037255173004
0 COSMOS 2251 DEB
1 37487U 93036BLQ 13289.35409162  .00002684  00000-0  10921-2 0  2384
2 37487 073.9464 166.8548 0059378 247.4365 112.0492 14.27050137173331
0 COSMOS 2251 DEB
1 37487U 93036BLQ 13292.99939351  .00002833  00000-0  11519-2 0  2397
2 37487 073.9469 160.2244 0059143 240.2252 119.3426 14.27073528173856
0 COSMOS 2251 DEB
1 37487U 93036BLQ 13295.31271431  .00002938  00000-0  11933-2 0  2402
2 37487 073.9465 156.0144 0059586 235.8911 123.6606 14.27089067174187
